NORAD_CAT_ID,OBJECT_NAME,OBJECT_TYPE,EPOCH,MEAN_MOTION,ECCENTRICITY,INCLINATION,RA_OF_ASC_NODE,ARG_OF_PERICENTER,MEAN_ANOMALY,BSTAR,MEAN_MOTION_DOT,MEAN_MOTION_DDOT,TLE_LINE0,TLE_LINE1,TLE_LINE2,SEMIMAJOR_AXIS,PERIOD,APOGEE,PERIGEE,DECAYED
52647.0,STARLINK-3846,PAYLOAD,2022-12-30 22:35:02,15.08848776,0.0002563,53.2186,87.8982,44.7454,315.3745,0.00023714,3.489e-05,0.0,0 STARLINK-3846,1 52647U 22052BB  22364.94099862  .00003489  00000-0  23714-3 0  9993,2 52647  53.2186  87.8982 0002563  44.7454 315.3745 15.08848776 35670,6917.854,95.437,541.492,537.946,0.0
52647.0,STARLINK-3846,PAYLOAD,2022-12-31 12:53:30,15.08842495,0.00025,53.2172,85.2218,39.6132,320.5043,0.00028841,4.305e-05,0.0,0 STARLINK-3846,1 52647U 22052BB  22365.53715752  .00004305  00000-0  28841-3 0  9996,2 52647  53.2172  85.2218 0002500  39.6132 320.5043 15.08842495 35396,6917.873000000001,95.437,541.467,538.008,0.0
52647.0,STARLINK-3846,PAYLOAD,2022-12-31 17:39:39,15.08841886,0.0002373,53.2169,84.3299,37.8043,322.3115,0.00026088,3.866e-05,0.0,0 STARLINK-3846,1 52647U 22052BB  22365.73587778  .00003866  00000-0  26088-3 0  9995,2 52647  53.2169  84.3299 0002373  37.8043 322.3115 15.08841886 35427,6917.875,95.437,541.381,538.0980000000002,0.0
52647.0,STARLINK-3846,PAYLOAD,2022-12-31 22:25:50,15.08831438,0.0002575,53.2182,83.4379,39.6854,320.4326,0.00010891,1.445e-05,0.0,0 STARLINK-3846,1 52647U 22052BB  22365.93461116  .00001445  00000-0  10891-3 0  9990,2 52647  53.2182  83.4379 0002575  39.6854 320.4326 15.08831438 35824,6917.906999999997,95.438,541.553,537.99,0.0
52647.0,STARLINK-3846,PAYLOAD,2023-01-01 07:58:10,15.08826825,0.0002295,53.2197,81.6537,35.463,324.6515,-0.00015712,-2.787e-05,0.0,0 STARLINK-3846,1 52647U 22052BB  23001.33206496 -.00002787  00000-0 -15712-3 0  9999,2 52647  53.2197  81.6537 0002295  35.4630 324.6515 15.08826825 35887,6917.920999999999,95.438,541.373,538.198,0.0
52647.0,STARLINK-3846,PAYLOAD,2023-01-01 11:08:56,15.08823651,0.0002241,53.2183,81.0576,30.4223,329.6899,-0.00019037,-3.315e-05,0.0,0 STARLINK-3846,1 52647U 22052BB  23001.46454845 -.00003315  00000-0 -19037-3 0  9998,2 52647  53.2183  81.0576 0002241  30.4223 329.6899 15.08823651 35539,6917.93,95.439,541.346,538.245,0.0
52647.0,STARLINK-3846,PAYLOAD,2023-01-01 17:30:30,15.08818704,0.0002206,53.2189,79.8685,35.4557,324.6582,-0.00020269,-3.511e-05,0.0,0 STARLINK-3846,1 52647U 22052BB  23001.72951456 -.00003511  00000-0 -20269-3 0  9994,2 52647  53.2189  79.8685 0002206  35.4557 324.6582 15.08818704 35949,6917.945,95.439,541.337,538.284,0.0
52647.0,STARLINK-3846,PAYLOAD,2023-01-02 10:59:43,15.08837704,0.0002334999999999,53.2186,76.5984,31.9994,328.1140000000001,-0.0001631999999999,-2.885e-05,0.0,0 STARLINK-3846,1 52647U 22052BB  23002.45814506 -.00002885  00000-0 -16320-3 0  9995,2 52647  53.2186  76.5984 0002335  31.9994 328.1140 15.08837704 36054,6917.887,95.438,541.368,538.137,0.0
52647.0,STARLINK-3846,PAYLOAD,2023-01-02 14:10:30,15.08833123,0.0002355999999999,53.218,76.0044,32.4217,327.69199999999995,-9.6436e-05,-1.823e-05,0.0,0 STARLINK-3846,1 52647U 22052BB  23002.59062604 -.00001823  00000-0 -96436-4 0  9992,2 52647  53.2180  76.0044 0002356  32.4217 327.6920 15.08833123 35709,6917.901,95.438,541.396,538.137,0.0
52647.0,STARLINK-3846,PAYLOAD,2023-01-02 22:07:24,15.08844845,0.0002484,53.2189,74.5166,35.0697,325.0458,1.4299e-06,-2.66e-06,0.0,0 STARLINK-3846,1 52647U 22052BB  23002.92181559 -.00000266  00000-0  14299-5 0  9997,2 52647  53.2189  74.5166 0002484  35.0697 325.0458 15.08844845 35755,6917.866,95.437,541.4490000000002,538.012,0.0
52647.0,STARLINK-3846,PAYLOAD,2023-01-03 10:50:29,15.08854377,0.0002474,53.2188,72.1377,29.6513,330.4619,-0.00013801,-2.485e-05,0.0,0 STARLINK-3846,1 52647U 22052BB  23003.45173305 -.00002485  00000-0 -13801-3 0  9998,2 52647  53.2188  72.1377 0002474  29.6513 330.4619 15.08854377 35836,6917.8359999999975,95.437,541.413,537.99,0.0
52647.0,STARLINK-3846,PAYLOAD,2023-01-03 14:01:16,15.08834342,0.0002387999999999,53.2187,71.5431,32.6803,327.4337,9.6279e-05,1.244e-05,0.0,0 STARLINK-3846,1 52647U 22052BB  23003.58422107  .00001244  00000-0  96279-4 0  9990,2 52647  53.2187  71.5431 0002388  32.6803 327.4337 15.08834342 36226,6917.898,95.438,541.415,538.111,0.0
52647.0,STARLINK-3846,PAYLOAD,2023-01-04 10:41:16,15.08847918,0.0002428,53.2186,67.6776,28.4913,331.6211,0.00019866,2.875e-05,0.0,0 STARLINK-3846,1 52647U 22052BB  23004.44533349  .00002875  00000-0  19866-3 0  9994,2 52647  53.2186  67.6776 0002428  28.4913 331.6211 15.08847918 36358,6917.856,95.437,541.401,538.0419999999998,0.0
52647.0,STARLINK-3846,PAYLOAD,2023-01-05 12:07:25,15.08858829,0.0002484,53.2179,62.9202,25.6031,334.5083,0.00011937,1.613e-05,0.0,0 STARLINK-3846,1 52647U 22052BB  23005.50515842  .00001613  00000-0  11937-3 0  9990,2 52647  53.2179  62.9202 0002484  25.6031 334.5083 15.08858829 36514,6917.823,95.436,541.406,537.969,0.0
52647.0,STARLINK-3846,PAYLOAD,2023-01-05 13:42:48,15.08858554,0.0002479,53.2181,62.6231,26.3168,333.7949,0.00012293,1.67e-05,0.0,0 STARLINK-3846,1 52647U 22052BB  23005.57139767  .00001670  00000-0  12293-3 0  9994,2 52647  53.2181  62.6231 0002479  26.3168 333.7949 15.08858554 36156,6917.824000000001,95.436,541.404,537.974,0.0
52647.0,STARLINK-3846,PAYLOAD,2023-01-06 10:22:52,15.08823979,0.0002424,53.2176,58.7576,24.1084,336.0021,-0.00027965,-4.734e-05,0.0,0 STARLINK-3846,1 52647U 22052BB  23006.43254984 -.00004734  00000-0 -27965-3 0  9997,2 52647  53.2176  58.7576 0002424  24.1084 336.0021 15.08823979 36656,6917.929,95.439,541.471,538.117,0.0
52647.0,STARLINK-3846,PAYLOAD,2023-01-06 13:33:38,15.08825014,0.0002456,53.2169,58.1621,24.45,335.6608,-0.00026814,-4.552e-05,0.0,0 STARLINK-3846,1 52647U 22052BB  23006.56502964 -.00004552  00000-0 -26814-3 0  9995,2 52647  53.2169  58.1621 0002456  24.4500 335.6608 15.08825014 36304,6917.926,95.439,541.49,538.092,0.0
52647.0,STARLINK-3846,PAYLOAD,2023-01-07 03:52:06,15.08833337,0.0002355,53.218,55.4848,19.7164,340.3918,-0.0001774,-3.11e-05,0.0,0 STARLINK-3846,1 52647U 22052BB  23007.16118349 -.00003110  00000-0 -17740-3 0  9999,2 52647  53.2180  55.4848 0002355  19.7164 340.3918 15.08833337 36763,6917.901,95.438,541.395,538.137,0.0
52647.0,STARLINK-3846,PAYLOAD,2023-01-07 10:13:38,15.08843685,0.0002496,53.2168,54.2963,24.1163,335.9945,-0.00011897,-2.182e-05,0.0,0 STARLINK-3846,1 52647U 22052BB  23007.42613500 -.00002182  00000-0 -11897-3 0  9992,2 52647  53.2168  54.2963 0002496  24.1163 335.9945 15.08843685 36801,6917.8690000000015,95.437,541.461,538.007,0.0
52647.0,STARLINK-3846,PAYLOAD,2023-01-07 19:45:58,15.08829582,0.0002622,53.2157,52.51300000000001,27.6931,332.42,-0.00018844,-3.286e-05,0.0,0 STARLINK-3846,1 52647U 22052BB  23007.82358905 -.00003286  00000-0 -18844-3 0  9996,2 52647  53.2157  52.5130 0002622  27.6931 332.4200 15.08829582 36860,6917.911999999998,95.438,541.591,537.9630000000002,0.0
52647.0,STARLINK-3846,PAYLOAD,2023-01-08 02:07:30,15.08823469,0.0002433,53.2184,51.3217,22.46,337.6498,-3.4905e-05,-8.44e-06,0.0,0 STARLINK-3846,1 52647U 22052BB  23008.08854914 -.00000844  00000-0 -34905-4 0  9990,2 52647  53.2184  51.3217 0002433  22.4600 337.6498 15.08823469 36537,6917.931,95.439,541.479,538.113,0.0
52647.0,STARLINK-3846,PAYLOAD,2023-01-08 19:36:44,15.08832688,0.0002674,53.2176,48.0515,26.8649,333.2482,0.00018174,2.605e-05,0.0,0 STARLINK-3846,1 52647U 22052BB  23008.81718220  .00002605  00000-0  18174-3 0  9994,2 52647  53.2176  48.0515 0002674  26.8649 333.2482 15.08832688 37012,6917.903,95.438,541.618,537.918,0.0
52647.0,STARLINK-3846,PAYLOAD,2023-01-09 03:33:39,15.08844491,0.0002601,53.2171,46.5644,30.5623,329.5521,9.6484e-05,1.248e-05,0.0,0 STARLINK-3846,1 52647U 22052BB  23009.14837890  .00001248  00000-0  96484-4 0  9999,2 52647  53.2171  46.5644 0002601  30.5623 329.5521 15.08844491 37069,6917.866999999998,95.437,541.531,537.932,0.0
52647.0,STARLINK-3846,PAYLOAD,2023-01-10 01:49:04,15.08817201,0.0002738,53.2176,42.4025,31.9774,328.1384,0.00041454,6.311e-05,0.0,0 STARLINK-3846,1 52647U 22052BB  23010.07574736  .00006311  00000-0  41454-3 0  9992,2 52647  53.2176  42.4025 0002738  31.9774 328.1384 15.08817201 37202,6917.95,95.439,541.7090000000002,537.9209999999998,0.0
52647.0,STARLINK-3846,PAYLOAD,2023-01-10 11:21:22,15.0884312,0.0002682,53.2171,40.6178,24.6341,335.4779,4.753899999999999e-07,-2.81e-06,0.0,0 STARLINK-3846,1 52647U 22052BB  23010.47318253 -.00000281  00000-0  47539-6 0  9990,2 52647  53.2171  40.6178 0002682  24.6341 335.4779 15.08843120 37267,6917.871,95.437,541.591,537.88,0.0
52647.0,STARLINK-3846,PAYLOAD,2023-01-10 19:18:18,15.08839244,0.0002413,53.2186,39.1283,23.9735,336.1369,7.8681e-05,9.64e-06,0.0,0 STARLINK-3846,1 52647U 22052BB  23010.80437881  .00000964  00000-0  78681-4 0  9993,2 52647  53.2186  39.1283 0002413  23.9735 336.1369 15.08839244 36943,6917.883000000002,95.438,541.4169999999998,538.078,0.0
52647.0,STARLINK-3846,PAYLOAD,2023-01-11 08:01:22,15.0886133,0.0002471,53.218,36.7492,37.3111,322.8053,-8.5227e-05,-1.645e-05,0.0,0 STARLINK-3846,1 52647U 22052BB  23011.33428989 -.00001645  00000-0 -85227-4 0  9994,2 52647  53.2180  36.7492 0002471  37.3111 322.8053 15.08861330 37396,6917.815,95.436,541.39,537.971,0.0
52647.0,STARLINK-3846,PAYLOAD,2023-01-11 19:09:04,15.08841779,0.0002599,53.2169,34.6687,28.9628,331.1508,8.7585e-05,1.106e-05,0.0,0 STARLINK-3846,1 52647U 22052BB  23011.79797198  .00001106  00000-0  87585-4 0  9994,2 52647  53.2169  34.6687 0002599  28.9628 331.1508 15.08841779 37467,6917.875,95.437,541.538,537.942,0.0
52647.0,STARLINK-3846,PAYLOAD,2023-01-12 07:52:10,15.08839187,0.0002653,53.2167,32.2903,29.5599,330.5543,6.7235e-05,7.82e-06,0.0,0 STARLINK-3846,1 52647U 22052BB  23012.32789389  .00000782  00000-0  67235-4 0  9996,2 52647  53.2167  32.2903 0002653  29.5599 330.5543 15.08839187 37175,6917.883000000002,95.438,541.5830000000002,537.913,0.0
